     3.04           N: GNSS NAV DATA    R: GLONASS          RINEX VERSION / TYPE
sbf2rin-15.6.1                          20231205 001829 UTC PGM / RUN BY / DATE 
                                                            COMMENT             
IISC                                    MARKER NAME         COMMENT
22306M002                               MARKER NUMBER       COMMENT
  1337936.4550  6070317.1261  1427876.7852                  COMMENT
This data is provided as a public service by NASA/JPL.      COMMENT
No warranty is expressed or implied regarding suitability   COMMENT
for use.  For further information, contact:                 COMMENT
ggnops at jpl dot nasa dot gov                              COMMENT
                                                            END OF HEADER       
R24 2023 12 04 03 15 00-3.456138074398E-05-1.818989403546E-12 9.720000000000E+04
     1.897990625000E+04 2.624864578247E-01 1.862645149231E-09 0.000000000000E+00
     1.696808447266E+04 6.400108337402E-03 9.313225746155E-10 2.000000000000E+00
     1.450439453125E+03-3.571217536926E+00 9.313225746155E-10 0.000000000000E+00
R12 2023 12 04 03 15 00 3.410782665014E-05 0.000000000000E+00 9.720000000000E+04
    -2.002277832031E+03-6.487178802490E-02 0.000000000000E+00 0.000000000000E+00
     2.445882958984E+04 9.576463699341E-01-0.000000000000E+00-1.000000000000E+00
    -6.906881835938E+03 3.401310920715E+00 0.000000000000E+00 0.000000000000E+00
R11 2023 12 04 03 15 00-2.181269228458E-04-2.728484105319E-12 9.720000000000E+04
    -1.015779833984E+04 4.851064682007E-01 9.313225746155E-10 0.000000000000E+00
     2.000257763672E+04-1.597511291504E+00-0.000000000000E+00 0.000000000000E+00
     1.216168798828E+04 3.032980918884E+00-1.862645149231E-09 0.000000000000E+00
R23 2023 12 04 03 15 00-1.045688986778E-04-9.094947017729E-13 9.720000000000E+04
     8.890675292969E+03-1.389262199402E+00 0.000000000000E+00 0.000000000000E+00
     1.827813964844E+04-1.603282928467E+00 0.000000000000E+00 3.000000000000E+00
    -1.541161669922E+04-2.702660560608E+00 1.862645149231E-09 0.000000000000E+00
R01 2023 12 04 03 15 00 7.129833102226E-05 0.000000000000E+00 9.720000000000E+04
    -9.559663085938E+02-2.926113128662E+00 1.862645149231E-09 0.000000000000E+00
     1.171051269531E+04 1.024826049805E+00-0.000000000000E+00 1.000000000000E+00
     2.263860937500E+04-6.530599594116E-01-1.862645149231E-09 0.000000000000E+00
R17 2023 12 04 03 15 00 4.048645496368E-05 2.728484105319E-12 9.720000000000E+04
     1.767537109375E+04 1.845911026001E+00 2.793967723846E-09 0.000000000000E+00
     5.617890625000E+03 1.536910057068E+00 9.313225746155E-10 4.000000000000E+00
     1.750649755859E+04-2.362812042236E+00-0.000000000000E+00 0.000000000000E+00
R02 2023 12 04 03 15 00-2.234522253275E-05 0.000000000000E+00 9.720000000000E+04
     1.659070507812E+04-2.509712219238E+00 2.793967723846E-09 0.000000000000E+00
     4.281827148438E+03 6.331415176392E-01 0.000000000000E+00-4.000000000000E+00
     1.896672607422E+04 2.049927711487E+00-0.000000000000E+00 0.000000000000E+00
R12 2023 12 04 03 45 00 3.410875797272E-05 0.000000000000E+00 9.900000000000E+04
    -1.898083496094E+03 1.422777175903E-01 0.000000000000E+00 0.000000000000E+00
     2.542106738281E+04 9.708976745605E-02-0.000000000000E+00-1.000000000000E+00
    -5.962963867188E+02 3.564834594727E+00-0.000000000000E+00 0.000000000000E+00
R24 2023 12 04 03 45 00-3.456417471170E-05-1.818989403546E-12 9.900000000000E+04
     1.882943505859E+04-4.528160095215E-01 1.862645149231E-09 0.000000000000E+00
     1.645892187500E+04-5.379552841187E-01 0.000000000000E+00 2.000000000000E+00
    -4.950723144531E+03-3.494924545288E+00 1.862645149231E-09 0.000000000000E+00
R11 2023 12 04 03 45 00-2.181325107813E-04-2.728484105319E-12 9.900000000000E+04
    -9.423314453125E+03 2.951145172119E-01 9.313225746155E-10 0.000000000000E+00
     1.645069628906E+04-2.320736885071E+00-0.000000000000E+00 0.000000000000E+00
     1.708099462891E+04 2.397475242615E+00-1.862645149231E-09 0.000000000000E+00
R01 2023 12 04 03 45 00 7.129926234484E-05 0.000000000000E+00 9.900000000000E+04
    -5.873994140625E+03-2.498045921326E+00 9.313225746155E-10 0.000000000000E+00
     1.384275488281E+04 1.313563346863E+00-0.000000000000E+00 1.000000000000E+00
     2.060309082031E+04-1.593932151794E+00-1.862645149231E-09 0.000000000000E+00
R17 2023 12 04 03 45 00 4.049204289913E-05 2.728484105319E-12 9.900000000000E+04
     2.073935986328E+04 1.511481285095E+00 2.793967723846E-09 0.000000000000E+00
     7.773773925781E+03 8.610162734985E-01 0.000000000000E+00 4.000000000000E+00
     1.263115039062E+04-3.019136428833E+00 0.000000000000E+00 0.000000000000E+00
R23 2023 12 04 03 45 00-1.045707613230E-04-9.094947017729E-13 9.900000000000E+04
     5.756323730469E+03-2.080452919006E+00-9.313225746155E-10 0.000000000000E+00
     1.525274121094E+04-1.710917472839E+00 0.000000000000E+00 3.000000000000E+00
    -1.961775244141E+04-1.940486907959E+00 1.862645149231E-09 0.000000000000E+00
R02 2023 12 04 03 45 00-2.234335988760E-05 0.000000000000E+00 9.900000000000E+04
     1.181242041016E+04-2.749649047852E+00 2.793967723846E-09 0.000000000000E+00
     5.896746093750E+03 1.162716865540E+00 0.000000000000E+00-4.000000000000E+00
     2.188038476562E+04 1.166498184204E+00-9.313225746155E-10 0.000000000000E+00
R13 2023 12 04 03 45 00-4.196073859930E-05-0.000000000000E+00 1.000500000000E+05
     5.871786621094E+03-4.369163513184E-02-0.000000000000E+00 0.000000000000E+00
     1.961782910156E+04 2.083232879639E+00 0.000000000000E+00-2.000000000000E+00
    -1.522342236328E+04 2.671221733093E+00 9.313225746155E-10 0.000000000000E+00
R12 2023 12 04 04 15 00 3.410875797272E-05 0.000000000000E+00 1.008000000000E+05
    -1.634774902344E+03 1.097831726074E-01 0.000000000000E+00 0.000000000000E+00
     2.479126611328E+04-7.917785644531E-01-0.000000000000E+00-1.000000000000E+00
     5.760499023438E+03 3.452375411987E+00-9.313225746155E-10 0.000000000000E+00
R13 2023 12 04 04 15 00-4.196073859930E-05-0.000000000000E+00 1.008000000000E+05
     6.052062500000E+03 2.103967666626E-01 0.000000000000E+00 0.000000000000E+00
     2.272573828125E+04 1.341303825378E+00 0.000000000000E+00-2.000000000000E+00
    -9.889237792969E+03 3.217242240906E+00 0.000000000000E+00 0.000000000000E+00
R01 2023 12 04 04 15 00 7.130112498999E-05 0.000000000000E+00 1.008000000000E+05
    -9.829101562500E+03-1.871222496033E+00 0.000000000000E+00 0.000000000000E+00
     1.630728173828E+04 1.383439064026E+00-0.000000000000E+00 1.000000000000E+00
     1.697461523438E+04-2.411524772644E+00-1.862645149231E-09 0.000000000000E+00
R24 2023 12 04 04 15 00-3.456696867943E-05-1.818989403546E-12 1.008000000000E+05
     1.729779736328E+04-1.254126548767E+00 9.313225746155E-10 0.000000000000E+00
     1.517178955078E+04-8.498239517212E-01 0.000000000000E+00 2.000000000000E+00
    -1.096836962891E+04-3.147812843323E+00 1.862645149231E-09 0.000000000000E+00
R11 2023 12 04 04 15 00-2.181380987167E-04-2.728484105319E-12 1.008000000000E+05
    -9.204369140625E+03-7.539939880371E-02 0.000000000000E+00 0.000000000000E+00
     1.177727148438E+04-2.829466819763E+00-0.000000000000E+00 0.000000000000E+00
     2.068124609375E+04 1.576861381531E+00-2.793967723846E-09 0.000000000000E+00
R17 2023 12 04 04 15 00 4.049763083458E-05 2.728484105319E-12 1.008000000000E+05
     2.295875976562E+04 9.153032302856E-01 2.793967723846E-09 0.000000000000E+00
     8.760047363281E+03 2.554044723511E-01 0.000000000000E+00 4.000000000000E+00
     6.777933593750E+03-3.442189216614E+00 9.313225746155E-10 0.000000000000E+00
R02 2023 12 04 04 15 00-2.234242856503E-05 0.000000000000E+00 1.008000000000E+05
     6.872207031250E+03-2.690747261047E+00 1.862645149231E-09 0.000000000000E+00
     8.439751464844E+03 1.646010398865E+00-0.000000000000E+00-4.000000000000E+00
     2.311174462891E+04 1.926822662354E-01-1.862645149231E-09 0.000000000000E+00
R12 2023 12 04 04 45 00 3.410968929529E-05 0.000000000000E+00 1.026000000000E+05
    -1.641631835938E+03-1.525363922119E-01 0.000000000000E+00 0.000000000000E+00
     2.262356445312E+04-1.592948913574E+00-0.000000000000E+00-1.000000000000E+00
     1.167168505859E+04 3.072996139526E+00-1.862645149231E-09 0.000000000000E+00
R13 2023 12 04 04 45 00-4.196166992188E-05-0.000000000000E+00 1.026000000000E+05
     6.493645996094E+03 2.399435043335E-01 0.000000000000E+00 0.000000000000E+00
     2.437459423828E+04 4.800939559937E-01-0.000000000000E+00-2.000000000000E+00
    -3.790781250000E+03 3.514853477478E+00-0.000000000000E+00 0.000000000000E+00
R01 2023 12 04 04 45 00 7.130391895771E-05 0.000000000000E+00 1.026000000000E+05
    -1.255181494141E+04-1.147153854370E+00-0.000000000000E+00 0.000000000000E+00
     1.866492919922E+04 1.191141128540E+00-0.000000000000E+00 1.000000000000E+00
     1.203377343750E+04-3.042651176453E+00-1.862645149231E-09 0.000000000000E+00
R02 2023 12 04 04 45 00-2.234149724245E-05 0.000000000000E+00 1.026000000000E+05
     2.288267089844E+03-2.362336158752E+00 9.313225746155E-10 0.000000000000E+00
     1.173147705078E+04 1.978541374207E+00-9.313225746155E-10-4.000000000000E+00
     2.256441845703E+04-7.971172332764E-01-1.862645149231E-09 0.000000000000E+00
R17 2023 12 04 04 45 00 4.050321877003E-05 2.728484105319E-12 1.026000000000E+05
     2.391727050781E+04 1.249589920044E-01 1.862645149231E-09 0.000000000000E+00
     8.794243164062E+03-1.829509735107E-01 0.000000000000E+00 4.000000000000E+00
     3.995917968750E+02-3.598738670349E+00 9.313225746155E-10 0.000000000000E+00
R24 2023 12 04 04 45 00-3.456976264715E-05-1.818989403546E-12 1.026000000000E+05
     1.433129003906E+04-2.027606964111E+00 0.000000000000E+00 0.000000000000E+00
     1.355607080078E+04-9.023895263672E-01 0.000000000000E+00 2.000000000000E+00
    -1.613599169922E+04-2.556582450867E+00 1.862645149231E-09 0.000000000000E+00
